GPS BIIR-08             
1 27663U 03005A   26092.33536537 -.00000019  00000+0  00000+0 0  9995
2 27663  54.8996 217.9811 0148489  52.8797 318.1338  2.00564702169793
GPS BIIR-11             
1 28190U 04009A   26093.34366605 -.00000035  00000+0  00000+0 0  9993
2 28190  54.8926 278.7093 0112444 169.9755   4.1137  2.00557195161446
GPS BIIR-13             
1 28474U 04045A   26093.75761573 -.00000086  00000+0  00000+0 0  9992
2 28474  55.1778 327.8951 0170365 313.9861 224.1146  2.00575016156938
GPS BIIR-14M            
1 28874U 05038A   26093.81476866 -.00000030  00000+0  00000+0 0  9993
2 28874  54.9397 276.1770 0128091 295.6947 243.8966  2.00570956150346
METEOSAT-9 (MSG-2)      
1 28912U 05049B   26093.97140566  .00000126  00000+0  00000+0 0  9995
2 28912   9.1959  54.8826 0000594  40.9643 131.8166  1.00273367  6252
GPS BIIR-16M            
1 29601U 06052A   26093.62874480 -.00000004  00000+0  00000+0 0  9993
2 29601  54.9497 216.9603 0087104  89.9060 271.0674  2.00553741141917
GPS BIIR-17M            
1 32260U 07047A   26093.93432213 -.00000014  00000+0  00000+0 0  9992
2 32260  54.0407  83.1242 0164079  86.2343 275.6386  2.00559174135322
GPS BIIR-18M            
1 32384U 07062A   26094.00172139 -.00000030  00000+0  00000+0 0  9991
2 32384  55.0918 277.1328 0033881 161.3217  14.6689  2.00555539134022
GOES 14                 
1 35491U 09033A   26094.19141847  .00000049  00000+0  00000+0 0  9994
2 35491   1.4992  83.9394 0001823 295.6803  65.2070  1.00111592  5849
GOES 15                 
1 36411U 10008A   26094.18876654  .00000022  00000+0  00000+0 0  9992
2 36411   1.0837  84.3159 0003299  17.6509 221.7739  1.00271551 58890
GSAT0101 (GALILEO-PFM)  
1 37846U 11060A   26093.93877219 -.00000095  00000+0  00000+0 0  9995
2 37846  57.0172 343.7769 0004100  17.7484 342.3127  1.70475877 89855
GSAT0102 (GALILEO-FM2)  
1 37847U 11060B   26094.16007975 -.00000095  00000+0  00000+0 0  9996
2 37847  57.0179 343.7712 0004811   9.1881 172.2383  1.70475892 89868
LUCH 5A                 
1 37951U 11074B   26094.23030840 -.00000047  00000+0  00000+0 0  9999
2 37951   8.5670  74.8810 0003176 284.4600  83.0440  1.00271206 52311
METEOSAT-10 (MSG-3)     
1 38552U 12035B   26094.17619981 -.00000005  00000+0  00000+0 0  9991
2 38552   4.4973  61.3269 0002426 295.6453 259.0200  1.00273251 50113
SARSAT 13 (METOP-B)     
1 38771U 12049A   26094.20813459  .00000217  00000+0  11895-3 0  9991
2 38771  98.6586 147.1564 0002414 172.2208 187.9007 14.21427520702752
GPS BIIF-3              
1 38833U 12053A   26094.02975600  .00000031  00000+0  00000+0 0  9998
2 38833  53.5700 146.6380 0177408  64.9742 296.9422  2.00566305 97955
GSAT0103 (GALILEO-FM3)  
1 38857U 12055A   26091.63283018  .00000036  00000+0  00000+0 0  9990
2 38857  55.7580 103.6444 0005893 291.3384  68.6425  1.70473455 83705
